{
  "type": "FeatureCollection",
  "features": [
    {
      "type": "Feature",
      "properties": {
        "norad_id": 33844,
        "name": "COSMOS 2251 DEB",
        "group": "cosmos-2251-debris",
        "lat": -73.15379249306416,
        "lon": -69.45805930316897,
        "alt_km": 816.7968263824432,
        "timestamp": "2025-12-19T18:58:41.978836+00:00",
        "meta_object_name": "COSMOS 2251 DEB",
        "meta_object_id": "1993-036CM",
        "meta_epoch": "2025-12-19T06:22:50.420640",
        "meta_mean_motion": 14.33728638,
        "meta_eccentricity": 0.00470766,
        "meta_inclination": 74.0668,
        "meta_ra_of_asc_node": 40.8643,
        "meta_arg_of_pericenter": 60.6886,
        "meta_mean_anomaly": 15.8589,
        "meta_ephemeris_type": 0,
        "meta_classification_type": "U",
        "meta_norad_cat_id": 33844,
        "meta_element_set_no": 999,
        "meta_rev_at_epoch": 87819,
        "meta_bstar": 0.00026015272,
        "meta_mean_motion_dot": 7.06e-06,
        "meta_mean_motion_ddot": 0,
        "tle_line1": "1 33844U 93036CM  25353.26586135  .00000706  00000+0  26015-3 0  9996",
        "tle_line2": "2 33844  74.0668  40.8643 0047076  60.6886  15.8589 14.33728638878192"
      },
      "geometry": {
        "type": "Point",
        "coordinates": [
          -69.45805930316897,
          -73.15379249306416
        ]
      }
    },
    {
      "type": "Feature",
      "properties": {
        "norad_id": 33848,
        "name": "COSMOS 2251 DEB",
        "group": "cosmos-2251-debris",
        "lat": -13.1783773883883,
        "lon": -19.32088889487027,
        "alt_km": 730.7933190678241,
        "timestamp": "2025-12-19T18:58:41.978846+00:00",
        "meta_object_name": "COSMOS 2251 DEB",
        "meta_object_id": "1993-036CR",
        "meta_epoch": "2025-12-19T02:43:53.119200",
        "meta_mean_motion": 14.44102483,
        "meta_eccentricity": 0.00414877,
        "meta_inclination": 74.0314,
        "meta_ra_of_asc_node": 345.7825,
        "meta_arg_of_pericenter": 39.6644,
        "meta_mean_anomaly": 29.1972,
        "meta_ephemeris_type": 0,
        "meta_classification_type": "U",
        "meta_norad_cat_id": 33848,
        "meta_element_set_no": 999,
        "meta_rev_at_epoch": 87923,
        "meta_bstar": 0.00080740744,
        "meta_mean_motion_dot": 2.769e-05,
        "meta_mean_motion_ddot": 0,
        "tle_line1": "1 33848U 93036CR  25353.11380925  .00002769  00000+0  80741-3 0  9990",
        "tle_line2": "2 33848  74.0314 345.7825 0041487  39.6644  29.1972 14.44102483879237"
      },
      "geometry": {
        "type": "Point",
        "coordinates": [
          -19.32088889487027,
          -13.1783773883883
        ]
      }
    },
    {
      "type": "Feature",
      "properties": {
        "norad_id": 33892,
        "name": "COSMOS 2251 DEB",
        "group": "cosmos-2251-debris",
        "lat": 67.90042008170316,
        "lon": -136.5158594155936,
        "alt_km": 728.4074622153194,
        "timestamp": "2025-12-19T18:58:41.978857+00:00",
        "meta_object_name": "COSMOS 2251 DEB",
        "meta_object_id": "1993-036CV",
        "meta_epoch": "2025-12-18T17:45:28.585152",
        "meta_mean_motion": 14.23358321,
        "meta_eccentricity": 0.01125222,
        "meta_inclination": 73.8026,
        "meta_ra_of_asc_node": 91.112,
        "meta_arg_of_pericenter": 121.1848,
        "meta_mean_anomaly": 1.7764,
        "meta_ephemeris_type": 0,
        "meta_classification_type": "U",
        "meta_norad_cat_id": 33892,
        "meta_element_set_no": 999,
        "meta_rev_at_epoch": 87040,
        "meta_bstar": 0.00051518178,
        "meta_mean_motion_dot": 1.221e-05,
        "meta_mean_motion_ddot": 0,
        "tle_line1": "1 33892U 93036CV  25352.73991418  .00001221  00000+0  51518-3 0  9993",
        "tle_line2": "2 33892  73.8026  91.1120 0112522 121.1848   1.7764 14.23358321870401"
      },
      "geometry": {
        "type": "Point",
        "coordinates": [
          -136.5158594155936,
          67.90042008170316
        ]
      }
    },
    {
      "type": "Feature",
      "properties": {
        "norad_id": 33894,
        "name": "COSMOS 2251 DEB",
        "group": "cosmos-2251-debris",
        "lat": -43.50353762231057,
        "lon": -37.882050959593855,
        "alt_km": 933.8884785392311,
        "timestamp": "2025-12-19T18:58:41.978867+00:00",
        "meta_object_name": "COSMOS 2251 DEB",
        "meta_object_id": "1993-036CX",
        "meta_epoch": "2025-12-19T01:02:02.974272",
        "meta_mean_motion": 13.21318804,
        "meta_eccentricity": 0.05792005,
        "meta_inclination": 73.767,
        "meta_ra_of_asc_node": 339.3249,
        "meta_arg_of_pericenter": 257.9221,
        "meta_mean_anomaly": 95.6429,
        "meta_ephemeris_type": 0,
        "meta_classification_type": "U",
        "meta_norad_cat_id": 33894,
        "meta_element_set_no": 999,
        "meta_rev_at_epoch": 80791,
        "meta_bstar": 0.001105682,
        "meta_mean_motion_dot": 1.077e-05,
        "meta_mean_motion_ddot": 0,
        "tle_line1": "1 33894U 93036CX  25353.04308998  .00001077  00000+0  11057-2 0  9997",
        "tle_line2": "2 33894  73.7670 339.3249 0579200 257.9221  95.6429 13.21318804807914"
      },
      "geometry": {
        "type": "Point",
        "coordinates": [
          -37.882050959593855,
          -43.50353762231057
        ]
      }
    },
    {
      "type": "Feature",
      "properties": {
        "norad_id": 33896,
        "name": "COSMOS 2251 DEB",
        "group": "cosmos-2251-debris",
        "lat": 61.97061191099911,
        "lon": 177.06280229618665,
        "alt_km": 849.9934599134158,
        "timestamp": "2025-12-19T18:58:41.978877+00:00",
        "meta_object_name": "COSMOS 2251 DEB",
        "meta_object_id": "1993-036CZ",
        "meta_epoch": "2025-12-18T21:26:38.970240",
        "meta_mean_motion": 14.19052698,
        "meta_eccentricity": 0.0126767,
        "meta_inclination": 73.7662,
        "meta_ra_of_asc_node": 145.5109,
        "meta_arg_of_pericenter": 320.2244,
        "meta_mean_anomaly": 203.3319,
        "meta_ephemeris_type": 0,
        "meta_classification_type": "U",
        "meta_norad_cat_id": 33896,
        "meta_element_set_no": 999,
        "meta_rev_at_epoch": 86827,
        "meta_bstar": 0.000343541,
        "meta_mean_motion_dot": 7.5e-06,
        "meta_mean_motion_ddot": 0,
        "tle_line1": "1 33896U 93036CZ  25352.89350660  .00000750  00000+0  34354-3 0  9997",
        "tle_line2": "2 33896  73.7662 145.5109 0126767 320.2244 203.3319 14.19052698868270"
      },
      "geometry": {
        "type": "Point",
        "coordinates": [
          177.06280229618665,
          61.97061191099911
        ]
      }
    },
    {
      "type": "Feature",
      "properties": {
        "norad_id": 33899,
        "name": "COSMOS 2251 DEB",
        "group": "cosmos-2251-debris",
        "lat": 67.4084761949222,
        "lon": 115.66260588046983,
        "alt_km": 661.6307085973003,
        "timestamp": "2025-12-19T18:58:41.978887+00:00",
        "meta_object_name": "COSMOS 2251 DEB",
        "meta_object_id": "1993-036DC",
        "meta_epoch": "2025-12-19T05:38:22.450848",
        "meta_mean_motion": 14.61243535,
        "meta_eccentricity": 0.00563246,
        "meta_inclination": 74.0545,
        "meta_ra_of_asc_node": 73.3203,
        "meta_arg_of_pericenter": 134.1353,
        "meta_mean_anomaly": 257.766,
        "meta_ephemeris_type": 0,
        "meta_classification_type": "U",
        "meta_norad_cat_id": 33899,
        "meta_element_set_no": 999,
        "meta_rev_at_epoch": 88934,
        "meta_bstar": 0.00056972263,
        "meta_mean_motion_dot": 2.844e-05,
        "meta_mean_motion_ddot": 0,
        "tle_line1": "1 33899U 93036DC  25353.23498207  .00002844  00000+0  56972-3 0  9995",
        "tle_line2": "2 33899  74.0545  73.3203 0056324 134.1353 257.7660 14.61243535889346"
      },
      "geometry": {
        "type": "Point",
        "coordinates": [
          115.66260588046983,
          67.4084761949222
        ]
      }
    },
    {
      "type": "Feature",
      "properties": {
        "norad_id": 33900,
        "name": "COSMOS 2251 DEB",
        "group": "cosmos-2251-debris",
        "lat": 34.970627140073795,
        "lon": -2.007940611613038,
        "alt_km": 701.2499949712274,
        "timestamp": "2025-12-19T18:58:41.978897+00:00",
        "meta_object_name": "COSMOS 2251 DEB",
        "meta_object_id": "1993-036DD",
        "meta_epoch": "2025-12-19T07:46:52.319424",
        "meta_mean_motion": 14.58368446,
        "meta_eccentricity": 0.00465414,
        "meta_inclination": 74.0182,
        "meta_ra_of_asc_node": 347.3171,
        "meta_arg_of_pericenter": 137.5269,
        "meta_mean_anomaly": 331.2598,
        "meta_ephemeris_type": 0,
        "meta_classification_type": "U",
        "meta_norad_cat_id": 33900,
        "meta_element_set_no": 999,
        "meta_rev_at_epoch": 89132,
        "meta_bstar": 0.00026959172,
        "meta_mean_motion_dot": 1.237e-05,
        "meta_mean_motion_ddot": 0,
        "tle_line1": "1 33900U 93036DD  25353.32421666  .00001237  00000+0  26959-3 0  9990",
        "tle_line2": "2 33900  74.0182 347.3171 0046541 137.5269 331.2598 14.58368446891321"
      },
      "geometry": {
        "type": "Point",
        "coordinates": [
          -2.007940611613038,
          34.970627140073795
        ]
      }
    }
  ]
}